FORMOSAT-3 FM1          
1 29048U 06011B   17345.82012179  .00000017  00000-0  22902-4 0  9998
2 29048  71.9677  96.6858 0043157 164.6336 195.6122 14.28551984612612
